[{"OBJECT_NAME":"STARLINK-31760","OBJECT_ID":"2024-098M","EPOCH":"2026-03-08T23:23:57.732000","MEAN_MOTION":15.27590493,"ECCENTRICITY":0.00015473,"INCLINATION":43.0007,"RA_OF_ASC_NODE":282.3086,"ARG_OF_PERICENTER":268.2313,"MEAN_ANOMALY":91.8362,"EPHEMERIS_TYPE":0,"CLASSIFICATION_TYPE":"U","NORAD_CAT_ID":59869,"ELEMENT_SET_NO":999,"REV_AT_EPOCH":10173,"BSTAR":-0.00012118674,"MEAN_MOTION_DOT":-3.597e-5,"MEAN_MOTION_DDOT":0},{"OBJECT_NAME":"KUIPER-00276","OBJECT_ID":"2026-030AG","EPOCH":"2026-03-09T22:00:01.999584","MEAN_MOTION":15.30162454,"ECCENTRICITY":0.00186471,"INCLINATION":51.8824,"RA_OF_ASC_NODE":218.7283,"ARG_OF_PERICENTER":66.9346,"MEAN_ANOMALY":101.1527,"EPHEMERIS_TYPE":0,"CLASSIFICATION_TYPE":"U","NORAD_CAT_ID":67794,"ELEMENT_SET_NO":999,"REV_AT_EPOCH":482,"BSTAR":0.0021152378,"MEAN_MOTION_DOT":0.00063116,"MEAN_MOTION_DDOT":0}]
